STARLINK-33572          
1 62767U 25015K   26068.90218445  .00025458  00000+0  86799-3 0  9991
2 62767  53.1610 321.4694 0001046  75.9298 284.1819 15.30227181 64458
TEVEL2-5                
1 63214U 25052E   26068.96660006  .00021339  00000+0  71765-3 0  9991
2 63214  97.4013 325.3677 0004700  95.3936 264.7842 15.30817434 54919
